METEOSAT-5 (MOP-2)      
1 21140U 91015B   09079.26394141 -.00000207  00000-0  10000-3 0  7036
2 21140  10.7239  50.0698 0004658 156.0081 204.0561  0.98452915 68201
METEOSAT-6 (MOP-3)      
1 22912U 93073B   09078.66812167 -.00000025  00000-0  10000-3 0  9788
2 22912   8.1617  60.9396 0002667 294.8501 129.6804  1.00276351 54570
HIMAWARI-5 (GMS-5)      
1 23522U 95011B   09078.97020191  .00000004  00000-0  10000-3 0  1612
2 23522   7.3104  63.9193 0008031 316.7627  43.2857  0.99402093 51052
GOES 10                 
1 24786U 97019A   09079.37839325 -.00000289  00000-0  10000-3 0  8250
2 24786   3.4106  75.6997 0004086 299.2947 239.6776  1.00266776 43615
ORBVIEW 2 (SEASTAR)     
1 24883U 97037A   09080.41864162 -.00000025  00000-0  46585-5 0  7270
2 24883  98.3287 203.8240 0002494 106.7532 253.3929 14.59980293619634
METEOSAT-7              
1 24932U 97049B   09078.78131340  .00000061  00000-0  10000-3 0  5403
2 24932   4.9781  70.6899 0001274 322.2559 123.2993  1.00277401 42290
NOAA 15                 
1 25338U 98030A   09080.47952829 -.00000019  00000-0  10211-4 0  8601
2 25338  98.5811  71.6327 0009906 317.7382  42.3028 14.24750041564288
GOES 11                 
1 26352U 00022A   09077.10182052  .00000084  00000-0  10000-3 0  2320
2 26352   0.2123  88.5896 0002800 228.4351 119.8584  1.00268376 32494
FENGYUN 2B              
1 26382U 00032A   09079.17942033  .00000086  00000-0  10000-3 0  1507
2 26382   4.1161  73.5878 0004940 197.4200 162.8207  1.00098919 31977
NOAA 16                 
1 26536U 00055A   09080.45737622 -.00000101  00000-0 -29620-4 0  3345
2 26536  99.1773  82.0051 0010789 163.6290 196.5233 14.12513170437916
GOES 12                 
1 26871U 01031A   09079.76144095 -.00000256  00000-0  10000-3 0  9819
2 26871   0.2032 260.0220 0003029 145.3176 332.3655  1.00278036 28123
FENGYUN 1D              
1 27431U 02024B   09080.46361418  .00000255  00000-0  17050-3 0  4910
2 27431  98.6231  73.8710 0014683 305.1977  54.7827 14.09280552352456
NOAA 17                 
1 27453U 02032A   09080.45442027 -.00000010  00000-0  14003-4 0  3430
2 27453  98.4939 142.5095 0011927  25.3680 334.8072 14.24048957350262
METEOSAT-8 (MSG-1)      
1 27509U 02040B   09077.88121765  .00000056  00000-0  10000-3 0  1920
2 27509   0.4902  14.0528 0002601 306.2909 182.7951  1.00267880 24098
KALPANA-1 (METSAT 1)    
1 27525U 02043A   09080.01843843 -.00000083  00000-0  10000-3 0  8522
2 27525   0.0156 246.8249 0005966 160.9411 211.4899  1.00272809 23916
INSAT-3A                
1 27714U 03013A   09078.81357877 -.00000264  00000-0  10000-3 0  5339
2 27714   0.0020 281.2422 0003215 125.3872 157.2085  1.00270804 21806
FENGYUN 2C              
1 28451U 04042A   09080.21224234 -.00000334  00000-0  00000+0 0  4363
2 28451   1.1771  78.1100 0002382 340.4991 300.8593  1.00281310 16169
HIMAWARI 6 (MTSAT-1R)   
1 28622U 05006A   09079.51030993 -.00000286  00000-0  10000-3 0   550
2 28622   0.0447  36.4306 0001386 146.4282 319.0670  1.00273637 14868
NOAA 18                 
1 28654U 05018A   09080.48760378 -.00000110  00000-0 -36417-4 0  8335
2 28654  98.8996  24.4388 0013439 249.8647 110.1080 14.11240999197586
METEOSAT-9 (MSG-2)      
1 28912U 05049B   09079.81921168 -.00000012  00000-0  10000-3 0  4781
2 28912   0.3969 128.8547 0002150 163.1193 181.0082  1.00272576 11965
MTSAT-2                 
1 28937U 06004A   09079.57989510 -.00000248  00000-0  10000-3 0  5487
2 28937   0.0060 158.3108 0002407 226.2468 147.4556  1.00273130 11344
FORMOSAT 3A             
1 29047U 06011A   09080.38881117  .00000001  00000-0  17060-4 0  9106
2 29047  71.9813 199.9397 0052904 294.4135  65.1465 14.27097032155203
FORMOSAT 3B             
1 29048U 06011B   09080.42146136  .00000390  00000-0  17471-3 0  9552
2 29048  71.9701 115.4477 0047216 245.4172 114.1998 14.27112278157689
FORMOSAT 3C             
1 29049U 06011C   09080.01812316  .00000361  00000-0  16364-3 0  8948
2 29049  72.0198 264.8347 0036527 307.7275  52.0547 14.27114836153404
FORMOSAT 3D             
1 29050U 06011D   09080.13900654  .00001098  00000-0  26646-3 0  1772
2 29050  72.0088  91.1963 0054039 203.2581 156.6006 14.54008783158440
FORMOSAT 3E             
1 29051U 06011E   09079.76906771  .00000373  00000-0  16522-3 0  9580
2 29051  72.0074 174.4994 0069898 179.3787 180.7437 14.27112325155952
FORMOSAT 3F             
1 29052U 06011F   09080.65791811  .00000359  00000-0  16273-3 0  9710
2 29052  72.0348 234.4203 0042378 277.9229  81.7094 14.27108000154387
GOES 13                 
1 29155U 06018A   09080.49028421 -.00000097  00000-0  00000+0 0  5929
2 29155   0.3624 255.6969 0002079 355.7517 359.5903  1.00268761 10378
METOP-A                 
1 29499U 06044A   09080.75888848 -.00000025  00000-0  85342-5 0  7612
2 29499  98.6970 142.2533 0001065  98.3499 261.7765 14.21495221125595
FENGYUN 2D              
1 29640U 06053A   09080.01277000 -.00000202  00000-0  10000-3 0  6030
2 29640   0.5069 250.7534 0001268 113.5073 265.3578  1.00269729  8411
FENGYUN 3A              
1 32958U 08026A   09080.72719749  .00000167  00000-0  10000-3 0  2605
2 32958  98.7763 153.0213 0001273  47.4204 312.7043 14.19584079 42372
NOAA 19                 
1 33591U 09005A   09080.51974385 -.00000102  00000-0 -32824-4 0   432
2 33591  98.7382  28.5976 0014756 129.1785 231.0696 14.10942748  6073
